OBJECT_NAME,OBJECT_ID,EPOCH,MEAN_MOTION,ECCENTRICITY,INCLINATION,RA_OF_ASC_NODE,ARG_OF_PERICENTER,MEAN_ANOMALY,EPHEMERIS_TYPE,CLASSIFICATION_TYPE,NORAD_CAT_ID,ELEMENT_SET_NO,REV_AT_EPOCH,BSTAR,MEAN_MOTION_DOT,MEAN_MOTION_DDOT
IONOSFERA-M 2,2024-199B,2026-06-13T15:23:43.244736,14.22756913,.00011935,98.7176,37.7617,41.9771,318.1498,0,U,61736,999,13032,.45023632E-4,.57E-6,0
PRSC-EO1,2025-012A,2026-06-13T15:09:05.571072,15.17727520,.00042805,97.4232,237.1604,267.0305,93.0439,0,U,62725,999,7765,.35835122E-3,.7166E-4,0
BIOMASS,2025-090A,2026-06-13T11:42:44.905536,14.67537862,.00013641,98.0741,351.8588,91.5484,268.5877,0,U,63772,999,6014,.17223433E-3,.929E-5,0
GOSAT-GW (IBUKI GW),2025-141A,2026-06-13T13:50:12.140160,14.67557243,.00014428,98.0569,101.9523,85.4099,274.7270,0,U,64694,999,5131,.10417781E-3,.543E-5,0
IONOSFERA-M 3,2025-155A,2026-06-13T14:03:16.284096,14.21485914,.00007995,98.6023,126.5813,163.4484,196.6720,0,U,64876,999,4589,.35017348E-4,.34E-6,0
IONOSFERA-M 4,2025-155B,2026-06-13T14:53:27.096864,14.21488104,.00009254,98.6030,126.5327,120.3730,239.7540,0,U,64877,999,4589,.38121997E-4,.41E-6,0
MICROCARB,2025-156A,2026-06-13T04:59:32.877888,14.72321705,.00149937,97.9831,241.4163,286.2051,73.7507,0,U,64899,999,4738,.79941744E-4,.456E-5,0
CO3D 3,2025-156B,2026-06-13T13:37:01.453152,15.20194429,.000131,97.4334,243.3123,130.8458,229.2891,0,U,64900,999,4898,.22473748E-3,.4799E-4,0
CO3D 2,2025-156D,2026-06-13T12:49:13.545120,15.20190053,.00015333,97.4335,243.1779,109.5682,250.5719,0,U,64902,999,4897,.21454843E-3,.4578E-4,0
CO3D 1,2025-156E,2026-06-13T11:14:39.401376,15.20215589,.00013,97.4335,243.1137,114.3849,245.7522,0,U,64903,999,4896,.23706849E-3,.507E-4,0
PRSC-S1,2025-164A,2026-06-13T16:24:46.811232,15.06428963,.00071158,41.1315,307.5419,322.3907,37.6409,0,U,65055,999,4790,.34717028E-3,.5037E-4,0
SENTINEL-6B,2025-264A,2026-06-13T08:06:59.343840,12.80929964,.00080364,66.0391,143.1729,269.2419,90.7675,0,U,66514,999,2667,.47034875E-4,-.5E-6,0
CAS500-3,2025-274F,2026-06-13T12:25:13.198368,14.88313209,.00065932,97.7447,92.6520,119.7059,240.4815,0,U,66655,999,2960,.13263094E-3,.1173E-4,0
PRSC-E03,2026-092A,2026-06-13T13:02:01.288608,15.06651511,.00043697,38.0001,111.1681,336.8267,23.2297,0,U,68835,999,740,.17604056E-3,.2553E-4,0
CAS500-2,2026-100AK,2026-06-13T14:22:00.888096,15.20551006,.00109636,97.4087,62.5159,46.1454,314.0685,0,U,69013,999,626,.32008195E-3,.6949E-4,0
