{"fetched_at":"2026-06-14T08:17:21Z","count":15259,"tles":[{"name":"SENTINEL-6B","line1":"1 66514U 25264A   26164.33818685 -.00000050  00000+0  47035-4 0  9990","line2":"2 66514  66.0391 143.1729 0008036 269.2419  90.7675 12.80929964 26671","category":"Other"},{"name":"IONOSFERA-M 2","line1":"1 61736U 24199B   26164.64147274  .00000057  00000+0  45024-4 0  9992","line2":"2 61736  98.7176  37.7617 0001193  41.9771 318.1498 14.22756913130320","category":"Other"},{"name":"CO3D 1","line1":"1 64903U 25156E   26164.46851159  .00005070  00000+0  23707-3 0  9992","line2":"2 64903  97.4335 243.1137 0001300 114.3849 245.7522 15.20215589 48962","category":"Other"},{"name":"IONOSFERA-M 4","line1":"1 64877U 25155B   26164.62045251  .00000041  00000+0  38122-4 0  9998","line2":"2 64877  98.6030 126.5327 0000925 120.3730 239.7540 14.21488104 45897","category":"Other"},{"name":"IONOSFERA-M 3","line1":"1 64876U 25155A   26164.58560514  .00000034  00000+0  35017-4 0  9998","line2":"2 64876  98.6023 126.5813 0000799 163.4484 196.6720 14.21485914 45898","category":"Other"},{"name":"PRSC-S1","line1":"1 65055U 25164A   26164.68387513  .00005037  00000+0  34717-3 0  9998","line2":"2 65055  41.1315 307.5419 0007115 322.3907  37.6409 15.06428963 47900","category":"Other"},{"name":"GOSAT-GW (IBUKI GW)","line1":"1 64694U 25141A   26164.57652940  .00000543  00000+0  10418-3 0  9997","line2":"2 64694  98.0569 101.9523 0001442  85.4099 274.7270 14.67557243 51318","category":"Other"},{"name":"BIOMASS","line1":"1 63772U 25090A   26164.48801974  .00000929  00000+0  17223-3 0  9998","line2":"2 63772  98.0741 351.8588 0001364  91.5484 268.5877 14.67537862 60142","category":"Other"},{"name":"PRSC-E03","line1":"1 68835U 26092A   26164.54307047  .00002553  00000+0  17604-3 0  9993","line2":"2 68835  38.0001 111.1681 0004369 336.8267  23.2297 15.06651511  7407","category":"Other"},{"name":"CAS500-2","line1":"1 69013U 26100AK  26164.59862139  .00006949  00000+0  32008-3 0  9993","line2":"2 69013  97.4087  62.5159 0010963  46.1454 314.0685 15.20551006  6263","category":"Other"},{"name":"PRSC-EO1","line1":"1 62725U 25012A   26164.63131448  .00007166  00000+0  35835-3 0  9997","line2":"2 62725  97.4232 237.1604 0004280 267.0305  93.0439 15.17727520 77651","category":"Other"},{"name":"CAS500-3","line1":"1 66655U 25274F   26164.51751387  .00001173  00000+0  13263-3 0  9993","line2":"2 66655  97.7447  92.6520 0006593 119.7059 240.4815 14.88313209 29607","category":"Other"},{"name":"CO3D 3","line1":"1 64900U 25156B   26164.56737793  .00004799  00000+0  22474-3 0  9994","line2":"2 64900  97.4334 243.3123 0001310 130.8458 229.2891 15.20194429 48982","category":"Other"},{"name":"MICROCARB","line1":"1 64899U 25156A   26164.20801942  .00000456  00000+0  79942-4 0  9999","line2":"2 64899  97.9831 241.4163 0014993 286.2051  73.7507 14.72321705 47389","category":"Other"},{"name":"CO3D 2","line1":"1 64902U 25156D   26164.53418455  .00004578  00000+0  21455-3 0  9997","line2":"2 64902  97.4335 243.1779 0001533 109.5682 250.5719 15.20190053 48973","category":"Other"}]}